NORAD_CAT_ID,OBJECT_NAME,OBJECT_TYPE,EPOCH,MEAN_MOTION,ECCENTRICITY,INCLINATION,RA_OF_ASC_NODE,ARG_OF_PERICENTER,MEAN_ANOMALY,BSTAR,MEAN_MOTION_DOT,MEAN_MOTION_DDOT,TLE_LINE0,TLE_LINE1,TLE_LINE2,SEMIMAJOR_AXIS,PERIOD,APOGEE,PERIGEE,DECAYED
53567.0,STARLINK-4585,PAYLOAD,2023-05-26 17:05:15,15.08842595,9.36e-05,53.2156,304.1067,79.6528,280.4569,0.0001323,1.819e-05,0.0,0 STARLINK-4585,1 53567U 22101AS  23146.71197987  .00001819  00000-0  13230-3 0  9998,2 53567  53.2156 304.1067 0000936  79.6528 280.4569 15.08842595 42766,6917.872,95.437,540.385,539.09,0.0
53567.0,STARLINK-4585,PAYLOAD,2023-05-27 16:56:02,15.08839799,9.85e-05,53.2154,299.6472,72.3153,287.7947,9.6894e-05,1.255e-05,0.0,0 STARLINK-4585,1 53567U 22101AS  23147.70558231  .00001255  00000-0  96894-4 0  9993,2 53567  53.2154 299.6472 0000985  72.3153 287.7947 15.08839799 42919,6917.881,95.438,540.427,539.065,0.0
53567.0,STARLINK-4585,PAYLOAD,2023-05-28 16:46:48,15.0884758,8.58e-05,53.2161,295.1866,83.1942,276.9148,0.00016196,2.291e-05,0.0,0 STARLINK-4585,1 53567U 22101AS  23148.69917797  .00002291  00000-0  16196-3 0  9995,2 53567  53.2161 295.1866 0000858  83.1942 276.9148 15.08847580 43067,6917.857,95.437,540.316,539.129,0.0
53567.0,STARLINK-4585,PAYLOAD,2023-05-29 02:19:08,15.08837945,0.0001139,53.2161,293.4013,92.6858,267.4265,0.00010476,1.38e-05,0.0,0 STARLINK-4585,1 53567U 22101AS  23149.09662521  .00001380  00000-0  10476-3 0  9995,2 53567  53.2161 293.4013 0001139  92.6858 267.4265 15.08837945 43122,6917.887,95.438,540.54,538.964,0.0
53567.0,STARLINK-4585,PAYLOAD,2023-05-29 13:26:50,15.08837682,9.02e-05,53.2147,291.3222,89.1608,270.9487,3.4974e-06,-2.32e-06,0.0,0 STARLINK-4585,1 53567U 22101AS  23149.56030276 -.00000232  00000-0  34974-5 0  9990,2 53567  53.2147 291.3222 0000902  89.1608 270.9487 15.08837682 43196,6917.887,95.438,540.376,539.128,0.0
53567.0,STARLINK-4585,PAYLOAD,2023-05-29 16:37:36,15.08839809,8.23e-05,53.2157,290.7277,88.5888,271.5198,5.1695e-05,5.35e-06,0.0,0 STARLINK-4585,1 53567U 22101AS  23149.69278378  .00000535  00000-0  51695-4 0  9994,2 53567  53.2157 290.7277 0000823  88.5888 271.5198 15.08839809 43217,6917.881,95.438,540.315,539.177,0.0
53567.0,STARLINK-4585,PAYLOAD,2023-05-30 08:31:27,15.08839607,8.99e-05,53.2158,287.7537,100.3374,259.7719,6.5573e-05,7.56e-06,0.0,0 STARLINK-4585,1 53567U 22101AS  23150.35518375  .00000756  00000-0  65573-4 0  9998,2 53567  53.2158 287.7537 0000899 100.3374 259.7719 15.08839607 43313,6917.882,95.438,540.369,539.125,0.0
53567.0,STARLINK-4585,PAYLOAD,2023-05-30 11:42:14,15.08836786,9.95e-05,53.2161,287.1566,97.1321,262.9784,2.6091e-05,1.27e-06,0.0,0 STARLINK-4585,1 53567U 22101AS  23150.48766713  .00000127  00000-0  26091-4 0  9997,2 53567  53.2161 287.1566 0000995  97.1321 262.9784 15.08836786 43330,6917.89,95.438,540.444,539.067,0.0
53567.0,STARLINK-4585,PAYLOAD,2023-05-30 16:28:23,15.08847124,0.0001103,53.2159,286.2659,100.6616,259.4501,-3.5417e-05,-8.52e-06,0.0,0 STARLINK-4585,1 53567U 22101AS  23150.68638168 -.00000852  00000-0 -35417-4 0  9990,2 53567  53.2159 286.2659 0001103 100.6616 259.4501 15.08847124 43368,6917.859,95.437,540.487,538.961,0.0
53567.0,STARLINK-4585,PAYLOAD,2023-05-31 13:08:24,15.08837606,8.47e-05,53.2158,282.4003,86.7417,273.3672,0.00010225,1.34e-05,0.0,0 STARLINK-4585,1 53567U 22101AS  23151.54750607  .00001340  00000-0  10225-3 0  9999,2 53567  53.2158 282.4003 0000847  86.7417 273.3672 15.08837606 43497,6917.888,95.438,540.339,539.167,0.0
53567.0,STARLINK-4585,PAYLOAD,2023-05-31 16:19:10,15.08832004,8.25e-05,53.2159,281.805,112.9424,247.1655,0.00027141,4.033e-05,0.0,0 STARLINK-4585,1 53567U 22101AS  23151.67998463  .00004033  00000-0  27141-3 0  9994,2 53567  53.2159 281.8050 0000825 112.9424 247.1655 15.08832004 43519,6917.905,95.438,540.341,539.199,0.0
53567.0,STARLINK-4585,PAYLOAD,2023-06-01 01:51:29,15.08842786,9.71e-05,53.216,280.0208,73.4822,286.6277,6.8886e-05,8.09e-06,0.0,0 STARLINK-4585,1 53567U 22101AS  23152.07742347  .00000809  00000-0  68886-4 0  9996,2 53567  53.2160 280.0208 0000971  73.4822 286.6277 15.08842786 43574,6917.872,95.437,540.409,539.065,0.0
53567.0,STARLINK-4585,PAYLOAD,2023-06-02 08:03:49,15.08837682,9.8e-05,53.2156,274.3708,71.0565,289.0533,5.7344e-05,6.25e-06,0.0,0 STARLINK-4585,1 53567U 22101AS  23153.33598847  .00000625  00000-0  57344-4 0  9993,2 53567  53.2156 274.3708 0000980  71.0565 289.0533 15.08837682 43760,6917.887,95.438,540.43,539.075,0.0
53567.0,STARLINK-4585,PAYLOAD,2023-06-02 14:25:22,15.08837504,9.56e-05,53.2157,273.1806,74.9879,285.1219,1.9889e-05,2.9e-07,0.0,0 STARLINK-4585,1 53567U 22101AS  23153.60094999  .00000029  00000-0  19889-4 0  9992,2 53567  53.2157 273.1806 0000956  74.9879 285.1219 15.08837504 43806,6917.888,95.438,540.414,539.092,0.0
53567.0,STARLINK-4585,PAYLOAD,2023-06-03 14:16:08,15.08844478,8.66e-05,53.215,268.7201,107.0354,253.0733,0.00010367,1.363e-05,0.0,0 STARLINK-4585,1 53567U 22101AS  23154.59454307  .00001363  00000-0  10367-3 0  9997,2 53567  53.2150 268.7201 0000866 107.0354 253.0733 15.08844478 43953,6917.867,95.437,540.331,539.133,0.0
53567.0,STARLINK-4585,PAYLOAD,2023-06-03 17:26:54,15.08853955,0.0001007,53.2151,268.1239,104.3037,255.8067,4.8556e-05,4.85e-06,0.0,0 STARLINK-4585,1 53567U 22101AS  23154.72701840  .00000485  00000-0  48556-4 0  9995,2 53567  53.2151 268.1239 0001007 104.3037 255.8067 15.08853955 43977,6917.838,95.437,540.399,539.006,0.0
53567.0,STARLINK-4585,PAYLOAD,2023-06-04 07:45:23,15.0883656,9.89e-05,53.2153,265.4464,95.3267,264.7838,7.3581e-05,8.83e-06,0.0,0 STARLINK-4585,1 53567U 22101AS  23155.32318959  .00000883  00000-0  73581-4 0  9995,2 53567  53.2153 265.4464 0000989  95.3267 264.7838 15.08836560 44060,6917.891,95.438,540.44,539.072,0.0
53567.0,STARLINK-4585,PAYLOAD,2023-06-04 12:31:33,15.08835782,8.9e-05,53.2157,264.5562,84.4587,275.6506,6.9731e-05,8.22e-06,0.0,0 STARLINK-4585,1 53567U 22101AS  23155.52191054  .00000822  00000-0  69731-4 0  9997,2 53567  53.2157 264.5562 0000890  84.4587 275.6506 15.08835782 44099,6917.893,95.438,540.374,539.143,0.0
53567.0,STARLINK-4585,PAYLOAD,2023-06-04 15:42:19,15.08838179,8.85e-05,53.2156,263.9609,92.3881,267.7213,7.9991e-05,9.86e-06,0.0,0 STARLINK-4585,1 53567U 22101AS  23155.65438848  .00000986  00000-0  79991-4 0  9996,2 53567  53.2156 263.9609 0000885  92.3881 267.7213 15.08838179 44115,6917.886,95.438,540.363,539.139,0.0
53567.0,STARLINK-4585,PAYLOAD,2023-06-05 10:46:56,15.08837946,8.14e-05,53.2149,260.3927,101.6104,258.498,0.00011036,1.469e-05,0.0,0 STARLINK-4585,1 53567U 22101AS  23156.44926796  .00001469  00000-0  11036-3 0  9990,2 53567  53.2149 260.3927 0000814 101.6104 258.4980 15.08837946 44237,6917.887,95.438,540.315,539.189,0.0
53567.0,STARLINK-4585,PAYLOAD,2023-06-05 13:57:42,15.08845632,8.68e-05,53.2151,259.7997,88.9385,271.1707,0.00011039,1.47e-05,0.0,0 STARLINK-4585,1 53567U 22101AS  23156.58174393  .00001470  00000-0  11039-3 0  9998,2 53567  53.2151 259.7997 0000868  88.9385 271.1707 15.08845632 44258,6917.863,95.437,540.329,539.128,0.0
53567.0,STARLINK-4585,PAYLOAD,2023-06-06 09:02:21,15.08829547,0.0001056,53.2151,256.2307,98.5799,261.5313,-1.945e-05,-5.97e-06,0.0,0 STARLINK-4585,1 53567U 22101AS  23157.37663744 -.00000597  00000-0 -19450-4 0  9996,2 53567  53.2151 256.2307 0001056  98.5799 261.5313 15.08829547 44377,6917.912,95.438,540.508,539.047,0.0
53567.0,STARLINK-4585,PAYLOAD,2023-06-06 10:37:44,15.08830861,9.88e-05,53.2153,255.9347,89.1554,270.9551,-1.1119e-06,-3.05e-06,0.0,0 STARLINK-4585,1 53567U 22101AS  23157.44287634 -.00000305  00000-0 -11119-5 0  9996,2 53567  53.2153 255.9347 0000988  89.1554 270.9551 15.08830861 44387,6917.908,95.438,540.457,539.09,0.0
53567.0,STARLINK-4585,PAYLOAD,2023-06-06 16:59:16,15.08837814,0.0001034,53.2155,254.7454,90.812,269.2991,4.6494e-05,4.52e-06,0.0,0 STARLINK-4585,1 53567U 22101AS  23157.70783095  .00000452  00000-0  46494-4 0  9991,2 53567  53.2155 254.7454 0001034  90.8120 269.2991 15.08837814 44425,6917.887,95.438,540.467,539.037,0.0
53567.0,STARLINK-4585,PAYLOAD,2023-06-06 18:34:39,15.08841095,9.66e-05,53.2152,254.4461,100.4221,259.688,6.797e-05,7.94e-06,0.0,0 STARLINK-4585,1 53567U 22101AS  23157.77406777  .00000794  00000-0  67970-4 0  9998,2 53567  53.2152 254.4461 0000966 100.4221 259.6880 15.08841095 44437,6917.877,95.437,540.41,539.074,0.0
53567.0,STARLINK-4585,PAYLOAD,2023-06-07 08:53:08,15.08835728,8.42e-05,53.2159,251.7702,94.4548,265.654,3.8874e-05,3.31e-06,0.0,0 STARLINK-4585,1 53567U 22101AS  23158.37023386  .00000331  00000-0  38874-4 0  9994,2 53567  53.2159 251.7702 0000842  94.4548 265.6540 15.08835728 44525,6917.893,95.438,540.341,539.176,0.0
53567.0,STARLINK-4585,PAYLOAD,2023-06-07 18:25:27,15.08838795,0.0001009,53.2151,249.9858,99.1408,260.9698,-3.5308e-06,-3.44e-06,0.0,0 STARLINK-4585,1 53567U 22101AS  23158.76767412 -.00000344  00000-0 -35308-5 0  9998,2 53567  53.2151 249.9858 0001009  99.1408 260.9698 15.08838795 44586,6917.884,95.438,540.447,539.051,0.0
53567.0,STARLINK-4585,PAYLOAD,2023-06-07 23:11:36,15.08843082,8.29e-05,53.2158,249.094,89.0722,271.0365,3.0206e-05,1.93e-06,0.0,0 STARLINK-4585,1 53567U 22101AS  23158.96638948  .00000193  00000-0  30206-4 0  9992,2 53567  53.2158 249.0940 0000829  89.0722 271.0365 15.08843082 44615,6917.871,95.437,540.309,539.162,0.0
53567.0,STARLINK-4585,PAYLOAD,2023-06-08 11:54:41,15.08836161,9.6e-05,53.2158,246.7146,96.3278,263.7823,9.5797e-05,1.237e-05,0.0,0 STARLINK-4585,1 53567U 22101AS  23159.49631265  .00001237  00000-0  95797-4 0  9992,2 53567  53.2158 246.7146 0000960  96.3278 263.7823 15.08836161 44695,6917.892,95.438,540.421,539.093,0.0
53567.0,STARLINK-4585,PAYLOAD,2023-06-08 15:05:27,15.08844903,9.2e-05,53.2156,246.1199,92.8041,267.3057,9.7572e-05,1.266e-05,0.0,0 STARLINK-4585,1 53567U 22101AS  23159.62878703  .00001266  00000-0  97572-4 0  9992,2 53567  53.2156 246.1199 0000920  92.8041 267.3057 15.08844903 44715,6917.865,95.437,540.367,539.094,0.0
